[{"OBJECT_NAME":"STARLINK-32795","OBJECT_ID":"2025-034P","EPOCH":"2026-03-09T17:09:33.215328","MEAN_MOTION":15.30230622,"ECCENTRICITY":0.0001297,"INCLINATION":53.1603,"RA_OF_ASC_NODE":257.7951,"ARG_OF_PERICENTER":97.3903,"MEAN_ANOMALY":262.7245,"EPHEMERIS_TYPE":0,"CLASSIFICATION_TYPE":"U","NORAD_CAT_ID":63042,"ELEMENT_SET_NO":999,"REV_AT_EPOCH":5909,"BSTAR":0.0014329308,"MEAN_MOTION_DOT":0.00042363,"MEAN_MOTION_DDOT":0},{"OBJECT_NAME":"CZ-4C R\/B","OBJECT_ID":"2023-123B","EPOCH":"2026-03-09T21:44:40.426944","MEAN_MOTION":15.36684191,"ECCENTRICITY":0.00627803,"INCLINATION":97.9677,"RA_OF_ASC_NODE":50.672,"ARG_OF_PERICENTER":67.0775,"MEAN_ANOMALY":293.7077,"EPHEMERIS_TYPE":0,"CLASSIFICATION_TYPE":"U","NORAD_CAT_ID":57655,"ELEMENT_SET_NO":999,"REV_AT_EPOCH":14181,"BSTAR":0.00052203987,"MEAN_MOTION_DOT":0.00019917,"MEAN_MOTION_DDOT":0}]
